2022-058A               
1 52785U 22058A   22178.55569253  .00001574  00000+0  20238-3 0  9998
2 52785  49.9966 142.5613 0012248  22.0327 338.1136 14.86429304  3781
2022-058B               
1 52786U 22058B   22178.55376712  .00000659  00000+0  99780-4 0  9997
2 52786  50.0021 142.5604 0012157  24.9222 335.2300 14.86526354  3763
2022-058C               
1 52787U 22058C   22178.55238011  .00001616  00000+0  20604-3 0  9999
2 52787  49.9915 142.5279 0012756  25.0393 335.1158 14.86623535  3766
2022-058D               
1 52788U 22058D   22178.54985618  .00001599  00000+0  20355-3 0  9994
2 52788  50.0065 142.5468 0012991  27.7410 332.4217 14.86772694  3763
2022-058E               
1 52789U 22058E   22178.54774061  .00000823  00000+0  11714-3 0  9991
2 52789  49.9902 142.4955 0014131  28.3554 331.8143 14.86878361  3764
2022-058F               
1 52790U 22058F   22178.54320510  .00001296  00000+0  16843-3 0  9992
2 52790  50.0076 142.5073 0014256  33.0847 327.0988 14.87152358  3765
2022-058G               
1 52791U 22058G   22178.54070370  .00001649  00000+0  20636-3 0  9996
2 52791  49.9917 142.4539 0015282  34.1785 326.0131 14.87308853  3768
2022-058H               
1 52792U 22058H   22178.53718458  .00000943  00000+0  12865-3 0  9993
2 52792  49.9964 142.4422 0016218  35.6705 324.5310 14.87502977  3765
2022-058J               
1 52793U 22058J   22178.53506335  .00001390  00000+0  17672-3 0  9991
2 52793  50.0015 142.4398 0016430  37.6497 322.5592 14.87630472  3799
CZ-2C R/B               
1 52794U 22058K   22178.41071700  .00001843  00000+0  11419-3 0  9998
2 52794  50.1764 139.4233 0103905 139.8139 221.0554 15.10835764  3797
PROGRESS-MS 20          
1 52795U 22059A   22178.51914833 -.00000148  00000+0  54263-5 0  9998
2 52795  51.6433 285.4203 0004485 297.2032 167.6633 15.49715456346789
SHENZHOU 14             
1 52797U 22060A   22178.13375831  .00011688  00000+0  14133-3 0  9999
2 52797  41.4703 158.4333 0003511 335.8918 125.0416 15.60554981 66325
NILESAT 301             
1 52817U 22061A   22178.60813376 -.00000074  00000+0  00000+0 0  9998
2 52817   0.0271 324.9817 0000618 257.1936 262.1937  1.00272938   201
FALCON 9 R/B            
1 52818U 22061B   22177.74648497  .00000688  00000+0  88909-3 0  9991
2 52818  18.7083  40.2407 7695385 188.2282 140.4740  1.75871268   313
STARLINK-4091           
1 52830U 22062A   22178.58334491 -.00781807  00000+0 -40113-2 0  9990
2 52830  53.2176 355.2988 0003929  33.6393 233.6756 15.82471350  1306
STARLINK-4089           
1 52831U 22062B   22178.58334491 -.00781929  00000+0 -40177-2 0  9996
2 52831  53.2176 355.3020 0004109  34.2242 231.9676 15.82438894  1304
STARLINK-4083           
1 52832U 22062C   22178.58334491 -.00779741  00000+0 -40049-2 0  9994
2 52832  53.2176 355.3005 0003650  29.0791 237.5085 15.82447578  1304
STARLINK-4086           
1 52833U 22062D   22178.58334491 -.00780090  00000+0 -40045-2 0  9990
2 52833  53.2176 355.3004 0003689  30.6294 236.3139 15.82459536  1306
STARLINK-4108           
1 52834U 22062E   22178.58334491 -.00781340  00000+0 -40068-2 0  9995
2 52834  53.2176 355.2983 0003860  33.0852 234.5994 15.82482179  1308
STARLINK-4080           
1 52835U 22062F   22178.58334491 -.00783005  00000+0 -40126-2 0  9991
2 52835  53.2176 355.2984 0004372  38.6568 229.3976 15.82494010  1303
STARLINK-4043           
1 52836U 22062G   22178.58334491 -.00780199  00000+0 -39970-2 0  9998
2 52836  53.2176 355.2968 0003650  31.6879 236.7519 15.82502868  1308
STARLINK-4036           
1 52837U 22062H   22178.58334491 -.00780538  00000+0 -39926-2 0  9997
2 52837  53.2176 355.2952 0003660  33.7288 235.8197 15.82536062  1305
STARLINK-4092           
1 52838U 22062J   22178.58334491 -.00782709  00000+0 -40074-2 0  9996
2 52838  53.2176 355.2962 0004154  38.7524 230.0474 15.82515588  1309
STARLINK-4048           
1 52839U 22062K   22178.58334491 -.00781963  00000+0 -39957-2 0  9996
2 52839  53.2176 355.2936 0003883  35.9871 234.2954 15.82558910  1308
STARLINK-4049           
1 52840U 22062L   22178.58334491 -.00780781  00000+0 -39915-2 0  9999
2 52840  53.2176 355.2941 0003784  32.2429 237.6675 15.82547529  1306
STARLINK-4065           
1 52841U 22062M   22178.58334491 -.00783265  00000+0 -39953-2 0  9992
2 52841  53.2176 355.2916 0004401  38.1747 233.2115 15.82592583  1305
STARLINK-4046           
1 52842U 22062N   22178.58334491 -.00779906  00000+0 -39916-2 0  9999
2 52842  53.2176 355.2955 0003500  32.0565 237.1238 15.82524633  1309
STARLINK-4188           
1 52843U 22062P   22178.58334491 -.00783254  00000+0 -39909-2 0  9993
2 52843  53.2176 355.2900 0004346  38.3660 233.7200 15.82616256  1308
STARLINK-4208           
1 52844U 22062Q   22178.58334491 -.00783692  00000+0 -40012-2 0  9997
2 52844  53.2176 355.2927 0004580  40.0284 230.6076 15.82571504  1303
STARLINK-4168           
1 52845U 22062R   22178.58334491 -.00783491  00000+0 -39900-2 0  9999
2 52845  53.2176 355.2895 0004421  38.4585 234.0022 15.82626998  1304
STARLINK-4212           
1 52846U 22062S   22178.58334491 -.00782574  00000+0 -39898-2 0  9997
2 52846  53.2176 355.2908 0004155  35.4805 236.2452 15.82604618  1302
STARLINK-4206           
1 52847U 22062T   22178.58334491 -.00781306  00000+0 -39753-2 0  9990
2 52847  53.2176 355.2881 0003842  31.3703 241.8183 15.82648198  1301
STARLINK-4202           
1 52848U 22062U   22178.58334491 -.00783661  00000+0 -39991-2 0  9991
2 52848  53.2176 355.2921 0004485  41.9614 229.0315 15.82582994  1305
STARLINK-4197           
1 52849U 22062V   22178.58334491 -.00782753  00000+0 -39786-2 0  9995
2 52849  53.2176 355.2867 0004065  37.3791 236.5516 15.82670426  1308
STARLINK-4187           
1 52850U 22062W   22178.58334491 -.00782989  00000+0 -39856-2 0  9996
2 52850  53.2176 355.2886 0004223  37.2932 235.5261 15.82638166  1304
STARLINK-3809           
1 52851U 22062X   22178.58334491 -.00782248  00000+0 -39740-2 0  9997
2 52851  53.2176 355.2861 0003979  35.5250 238.7737 15.82681085  1300
STARLINK-4184           
1 52852U 22062Y   22178.58334491 -.00782946  00000+0 -39813-2 0  9994
2 52852  53.2176 355.2871 0004183  37.2161 236.3340 15.82660236  1309
STARLINK-4189           
1 52853U 22062Z   22178.58334491 -.00782419  00000+0 -39704-2 0  9999
2 52853  53.2176 355.2846 0004071  34.2100 240.8007 15.82704054  1305
STARLINK-4204           
1 52854U 22062AA  22178.58334491 -.00782141  00000+0 -39713-2 0  9992
2 52854  53.2176 355.2850 0003938  33.1338 241.5137 15.82692803  1303
STARLINK-4209           
1 52855U 22062AB  22178.58334491 -.00783925  00000+0 -39710-2 0  9991
2 52855  53.2176 355.2825 0004579  39.5986 236.4942 15.82738313  1301
STARLINK-4201           
1 52856U 22062AC  22178.58334491 -.00782499  00000+0 -39688-2 0  9991
2 52856  53.2176 355.2835 0004042  35.8856 239.4861 15.82715283  1307
STARLINK-4199           
1 52857U 22062AD  22178.58334491 -.00782243  00000+0 -39596-2 0  9997
2 52857  53.2176 355.2810 0003911  35.2833 241.5602 15.82758415  1305
STARLINK-4198           
1 52858U 22062AE  22178.58334491 -.00784322  00000+0 -39744-2 0  9993
2 52858  53.2176 355.2829 0004877  43.0785 232.6456 15.82727700  1302
STARLINK-4196           
1 52859U 22062AF  22178.58334491 -.00783782  00000+0 -39644-2 0  9992
2 52859  53.2176 355.2803 0004456  41.3426 235.8497 15.82770867  1303
STARLINK-4191           
1 52860U 22062AG  22178.58334491 -.00782223  00000+0 -39617-2 0  9993
2 52860  53.2176 355.2813 0003903  34.7808 241.7133 15.82746742  1300
STARLINK-4112           
1 52861U 22062AH  22178.58334491 -.00781307  00000+0 -39422-2 0  9990
2 52861  53.2176 355.2767 0003827  30.7494 248.2541 15.82824793  1309
STARLINK-4010           
1 52862U 22062AJ  22178.58334491 -.00781014  00000+0 -39492-2 0  9993
2 52862  53.2176 355.2792 0003728  32.3276 245.2391 15.82780034  1303
STARLINK-4270           
1 52863U 22062AK  22178.58334491 -.00781385  00000+0 -39469-2 0  9999
2 52863  53.2176 355.2782 0003743  33.1673 245.1078 15.82803018  1309
STARLINK-4267           
1 52864U 22062AL  22178.58334491 -.00782384  00000+0 -39539-2 0  9998
2 52864  53.2176 355.2785 0004000  35.8035 242.1239 15.82791787  1306
STARLINK-4274           
1 52865U 22062AM  22178.58334491 -.00781230  00000+0 -39376-2 0  9997
2 52865  53.2176 355.2753 0003818  31.0067 248.7101 15.82847258  1306
STARLINK-4272           
1 52866U 22062AN  22178.58334491 -.00782871  00000+0 -39520-2 0  9991
2 52866  53.2176 355.2771 0004112  35.4772 243.1591 15.82814779  1300
STARLINK-4126           
1 52867U 22062AP  22178.58334491 -.00782548  00000+0 -39400-2 0  9990
2 52867  53.2176 355.2739 0004102  34.2113 246.2357 15.82869497  1301
STARLINK-4261           
1 52868U 22062AQ  22178.58334491 -.00781972  00000+0 -39435-2 0  9999
2 52868  53.2176 355.2757 0003905  31.8418 247.5166 15.82836415  1309
STARLINK-4266           
1 52869U 22062AR  22178.58334491 -.00781626  00000+0 -39337-2 0  9997
2 52869  53.2176 355.2732 0003812  31.8229 248.9895 15.82879847  1300
STARLINK-4195           
1 52870U 22062AS  22178.58334491 -.00782422  00000+0 -39415-2 0  9991
2 52870  53.2176 355.2743 0004069  34.0781 246.0124 15.82858220  1303
STARLINK-4207           
1 52871U 22062AT  22178.58334491 -.00782717  00000+0 -39328-2 0  9992
2 52871  53.2176 355.2712 0004041  36.1426 245.7418 15.82913782  1306
STARLINK-4213           
1 52872U 22062AU  22178.58334491 -.00782336  00000+0 -39351-2 0  9996
2 52872  53.2176 355.2721 0003985  33.3712 247.8055 15.82890994  1309
STARLINK-4211           
1 52873U 22062AV  22178.58334491 -.00782385  00000+0 -39271-2 0  9992
2 52873  53.2176 355.2697 0004059  33.4853 249.1455 15.82934348  1303
STARLINK-4210           
1 52874U 22062AW  22178.58334491 -.00782639  00000+0 -39344-2 0  9996
2 52874  53.2176 355.2714 0004079  35.3635 246.1678 15.82902424  1309
